{
  "55777": {
    "noradId": "55777",
    "tle": [
      "1 55777C 23028AN  25289.10743056 -.00001918  00000+0 -16077-3 0  2894",
      "2 55777  70.0009 228.8760 0002844 271.1094 283.2334 14.98329986    19"
    ]
  },
  "55778": {
    "noradId": "55778",
    "tle": [
      "1 55778C 23028AP  25289.11298611 -.00006212  00000+0 -52066-3 0  2898",
      "2 55778  70.0011 228.8367 0002913 270.5997 336.2118 14.98334636    15"
    ]
  },
  "55779": {
    "noradId": "55779",
    "tle": [
      "1 55779C 23028AQ  25289.10881944 -.00019870  00000+0 -16653-2 0  2890",
      "2 55779  70.0014 208.7917 0002805 272.3070 110.7935 14.98347417    12"
    ]
  },
  "55780": {
    "noradId": "55780",
    "tle": [
      "1 55780C 23028AR  25289.10951389  .00001771  00000+0  14847-3 0  2896",
      "2 55780  70.0011 228.8201 0003057 269.8749 340.7266 14.98324325    19"
    ]
  },
  "55781": {
    "noradId": "55781",
    "tle": [
      "1 55781C 23028AS  25289.11090278 -.00006923  00000+0 -58021-3 0  2897",
      "2 55781  70.0009 228.9260 0002925 270.7441 279.8050 14.98334078    15"
    ]
  },
  "55782": {
    "noradId": "55782",
    "tle": [
      "1 55782C 23028AT  25289.11159722 -.00010701  00000+0 -89688-3 0  2890",
      "2 55782  70.0014 209.1670 0002903 270.3949 149.1855 14.98336421    19"
    ]
  },
  "55783": {
    "noradId": "55783",
    "tle": [
      "1 55783C 23028AU  25289.11159722 -.00007115  00000+0 -59642-3 0  2893",
      "2 55783  70.0014 209.1650 0002984 271.4393 149.0246 14.98329806    14"
    ]
  },
  "55784": {
    "noradId": "55784",
    "tle": [
      "1 55784C 23028AV  25289.10951389 -.00035834  00000+0 -30048-2 0  2899",
      "2 55784  70.0015 209.0713 0002961 269.4301 229.0408 14.98344213    14"
    ]
  },
  "55785": {
    "noradId": "55785",
    "tle": [
      "1 55785C 23028AW  25289.10951389 -.00010746  00000+0 -90046-3 0  2890",
      "2 55785  70.0013 209.1453 0002898 273.4081 158.3031 14.98344361    14"
    ]
  },
  "55786": {
    "noradId": "55786",
    "tle": [
      "1 55786C 23028AX  25289.10604167  .00004958  00000+0  41532-3 0  2892",
      "2 55786  70.0015 209.0791 0003078 270.1872 210.2558 14.98344377    13"
    ]
  },
  "55787": {
    "noradId": "55787",
    "tle": [
      "1 55787C 23028AY  25289.11020833 -.00000469  00000+0 -39348-4 0  2894",
      "2 55787  70.0014 209.1183 0002947 271.8655 186.1225 14.98325918    12"
    ]
  },
  "55788": {
    "noradId": "55788",
    "tle": [
      "1 55788C 23028AZ  25289.10951389 -.00008663  00000+0 -72614-3 0  2899",
      "2 55788  70.0015 209.0954 0002748 271.7194 205.0442 14.98334449    16"
    ]
  },
  "55789": {
    "noradId": "55789",
    "tle": [
      "1 55789C 23028BA  25289.10812500 -.00003520  00000+0 -29496-3 0  2898",
      "2 55789  70.0016 208.9472 0003076 271.5666 332.7451 14.98332019    17"
    ]
  },
  "55790": {
    "noradId": "55790",
    "tle": [
      "1 55790C 23028BB  25289.10812500 -.00002170  00000+0 -18191-3 0  2890",
      "2 55790  70.0017 208.9743 0003032 268.9288 312.0161 14.98323350    10"
    ]
  },
  "55791": {
    "noradId": "55791",
    "tle": [
      "1 55791C 23028BC  25289.11020833 -.00009825  00000+0 -82360-3 0  2895",
      "2 55791  70.0016 209.0436 0002966 275.3144 250.2189 14.98331273    15"
    ]
  },
  "55914": {
    "noradId": "55914",
    "tle": [
      "1 55914C 23037A   25289.11159722 -.00005566  00000+0 -46642-3 0  2893",
      "2 55914  69.9998 309.1401 0003190 273.2942 208.4179 14.98335170    19"
    ]
  },
  "55915": {
    "noradId": "55915",
    "tle": [
      "1 55915C 23037B   25289.10951389 -.00011786  00000+0 -98767-3 0  2898",
      "2 55915  70.0001 309.0440 0003194 270.4804 290.0243 14.98344627    16"
    ]
  },
  "55916": {
    "noradId": "55916",
    "tle": [
      "1 55916C 23037C   25289.10673611 -.00005636  00000+0 -47229-3 0  2892",
      "2 55916  69.9999 309.1268 0003099 271.0685 206.9259 14.98338796    10"
    ]
  },
  "55917": {
    "noradId": "55917",
    "tle": [
      "1 55917C 23037D   25289.12548611  .00261080  00000+0  11722-2 0  2899",
      "2 55917  69.9662 224.6019 0003653 245.1382 200.3173 15.83606340    16"
    ]
  },
  "55918": {
    "noradId": "55918",
    "tle": [
      "1 55918C 23037E   25289.11437500 -.00009532  00000+0 -79865-3 0  2890",
      "2 55918  69.9999 309.0821 0003584 270.1686 271.5178 14.98345754    16"
    ]
  },
  "55919": {
    "noradId": "55919",
    "tle": [
      "1 55919C 23037F   25289.10951389 -.00009026  00000+0 -75638-3 0  2898",
      "2 55919  70.0002 309.0442 0003421 273.0871 286.5253 14.98342428    17"
    ]
  },
  "55920": {
    "noradId": "55920",
    "tle": [
      "1 55920C 23037G   25289.11368056 -.00013828  00000+0 -11588-2 0  2892",
      "2 55920  69.9994 289.1778 0003201 270.1005 291.5723 14.98345445    19"
    ]
  },
  "55921": {
    "noradId": "55921",
    "tle": [
      "1 55921C 23037H   25289.10673611 -.00004825  00000+0 -40439-3 0  2893",
      "2 55921  69.9999 308.9501 0003288 270.3843   5.1688 14.98334284    14"
    ]
  },
  "55922": {
    "noradId": "55922",
    "tle": [
      "1 55922C 23037J   25289.10743056 -.00003798  00000+0 -31829-3 0  2896",
      "2 55922  70.0001 308.9738 0003238 270.1892 346.5920 14.98328124    18"
    ]
  },
  "55923": {
    "noradId": "55923",
    "tle": [
      "1 55923C 23037K   25289.11090278 -.00013465  00000+0 -11281-2 0  2890",
      "2 55923  70.0002 308.9898 0003376 268.0245 344.9414 14.98354506    11"
    ]
  },
  "55924": {
    "noradId": "55924",
    "tle": [
      "1 55924C 23037L   25289.11298611  .00026721  00000+0  22404-2 0  2898",
      "2 55924  69.9993 289.1524 0003262 276.1199 304.2762 14.98284443    13"
    ]
  },
  "55925": {
    "noradId": "55925",
    "tle": [
      "1 55925C 23037M   25289.11229167 -.00063627  00000+0 -53306-2 0  2892",
      "2 55925  69.9997 308.9107 0003522 269.5481  58.5047 14.98404821    13"
    ]
  },
  "55926": {
    "noradId": "55926",
    "tle": [
      "1 55926C 23037N   25289.07062500 -.00011152  00000+0 -93451-3 0  2896",
      "2 55926  69.9991 289.2110 0003184 269.9996 127.0227 14.98343098    12"
    ]
  },
  "55927": {
    "noradId": "55927",
    "tle": [
      "1 55927C 23037P   25289.10673611 -.00004605  00000+0 -38597-3 0  2897",
      "2 55927  69.9994 308.8761 0003078 271.8976  70.2354 14.98325709    17"
    ]
  },
  "55928": {
    "noradId": "55928",
    "tle": [
      "1 55928C 23037Q   25289.10951389 -.00009752  00000+0 -81724-3 0  2897",
      "2 55928  69.9994 308.8416 0003139 273.0405 107.5431 14.98342323    15"
    ]
  },
  "55930": {
    "noradId": "55930",
    "tle": [
      "1 55930C 23037S   25289.11159722 -.00025583  00000+0 -21444-2 0  2894",
      "2 55930  69.9996 288.9343 0003091 273.5575 142.0631 14.98347937    19"
    ]
  },
  "55931": {
    "noradId": "55931",
    "tle": [
      "1 55931C 23037T   25289.10881944 -.00004875  00000+0 -40859-3 0  2895",
      "2 55931  69.9997 308.8189 0003219 275.4964 123.7974 14.98332990    15"
    ]
  },
  "55932": {
    "noradId": "55932",
    "tle": [
      "1 55932C 23037U   25289.10743056 -.00006267  00000+0 -52537-3 0  2890",
      "2 55932  69.9997 268.8054 0002937 270.7889 348.6123 14.98327000    12"
    ]
  },
  "55933": {
    "noradId": "55933",
    "tle": [
      "1 55933C 23037V   25289.10951389 -.00007393  00000+0 -61971-3 0  2894",
      "2 55933  69.9992 289.0898 0002994 270.9534 358.2832 14.98328029    17"
    ]
  },
  "55934": {
    "noradId": "55934",
    "tle": [
      "1 55934C 23037W   25289.10881944 -.00027338  00000+0 -22904-2 0  2897",
      "2 55934  69.9995 288.9388 0003187 269.9743 129.6561 14.98368575    17"
    ]
  },
  "55935": {
    "noradId": "55935",
    "tle": [
      "1 55935C 23037X   25289.11298611 -.00014546  00000+0 -12190-2 0  2895",
      "2 55935  69.9992 289.0533 0003324 270.6940  39.7772 14.98344379    11"
    ]
  },
  "55936": {
    "noradId": "55936",
    "tle": [
      "1 55936C 23037Y   25289.11159722 -.00007953  00000+0 -66651-3 0  2891",
      "2 55936  69.9996 268.8205 0002992 270.9175 348.4086 14.98336707    14"
    ]
  },
  "55937": {
    "noradId": "55937",
    "tle": [
      "1 55937C 23037Z   25289.11020833 -.00019310  00000+0 -16182-2 0  2895",
      "2 55937  69.9993 289.0348 0003451 271.3184  46.6904 14.98349351    16"
    ]
  },
  "55938": {
    "noradId": "55938",
    "tle": [
      "1 55938C 23037AA  25289.10604167 -.00010903  00000+0 -91380-3 0  2896",
      "2 55938  69.9992 289.0204 0003055 270.5761  47.4774 14.98338921    14"
    ]
  },
  "55939": {
    "noradId": "55939",
    "tle": [
      "1 55939C 23037AB  25289.10812500 -.00015242  00000+0 -12772-2 0  2897",
      "2 55939  69.9994 288.9650 0003154 272.6037 101.6894 14.98349652    18"
    ]
  },
  "55940": {
    "noradId": "55940",
    "tle": [
      "1 55940C 23037AC  25289.10743056 -.00006428  00000+0 -53876-3 0  2895",
      "2 55940  69.9993 288.9919 0003051 272.8426  75.2256 14.98333716    19"
    ]
  },
  "55941": {
    "noradId": "55941",
    "tle": [
      "1 55941C 23037AD  25289.11159722 -.00011030  00000+0 -92437-3 0  2899",
      "2 55941  69.9993 289.1324 0003076 270.2728 325.1735 14.98342099    10"
    ]
  },
  "55942": {
    "noradId": "55942",
    "tle": [
      "1 55942C 23037AE  25289.10951389 -.00006567  00000+0 -55062-3 0  2890",
      "2 55942  69.9997 288.8340 0003033 277.9252 216.4845 14.98318152    15"
    ]
  },
  "55943": {
    "noradId": "55943",
    "tle": [
      "1 55943C 23037AF  25289.10812500 -.00015789  00000+0 -13231-2 0  2899",
      "2 55943  69.9998 288.8787 0003133 270.7226 171.1047 14.98347671    14"
    ]
  },
  "55944": {
    "noradId": "55944",
    "tle": [
      "1 55944C 23037AG  25289.11229167 -.00006734  00000+0 -56429-3 0  2899",
      "2 55944  69.9998 288.8518 0003103 272.6347 214.0603 14.98337334    19"
    ]
  }
}